IRIDIUM 112             
1 41925U 17003J   24284.12404841  .00001108  00000+0  38849-3 0  9990
2 41925  86.4005 345.3474 0001890  91.6646 268.4766 14.34220501405141
IRIDIUM 111             
1 41926U 17003K   24283.27414112  .00000266  00000+0  87977-4 0  9999
2 41926  86.4009 345.7595 0002000  97.1836 262.9587 14.34217922404973
IRIDIUM 113             
1 42803U 17039A   24283.81224473  .00000256  00000+0  84214-4 0  9992
2 42803  86.4014 219.2729 0001985  84.5429 275.5993 14.34213317382988
IRIDIUM 120             
1 42805U 17039C   24284.08498649  .00000266  00000+0  88096-4 0  9995
2 42805  86.4002 219.0216 0002425  81.5034 278.6437 14.34217830383011
IRIDIUM 115             
1 42806U 17039D   24283.73804376  .00002096  00000+0  61695-3 0  9993
2 42806  86.4538 219.2075 0002072  89.7575 270.3863 14.43291659385496
IRIDIUM 118             
1 42807U 17039E   24283.46682651  .00000413  00000+0  14051-3 0  9999
2 42807  86.3935 250.8932 0002463  85.4852 274.6625 14.34216491381709
IRIDIUM 117             
1 42808U 17039F   24283.83469579  .00001265  00000+0  44472-3 0  9999
2 42808  86.3940 250.7018 0002326  86.6442 273.5019 14.34215057381775
